NORAD_CAT_ID,OBJECT_NAME,OBJECT_TYPE,EPOCH,MEAN_MOTION,ECCENTRICITY,INCLINATION,RA_OF_ASC_NODE,ARG_OF_PERICENTER,MEAN_ANOMALY,BSTAR,MEAN_MOTION_DOT,MEAN_MOTION_DDOT,TLE_LINE0,TLE_LINE1,TLE_LINE2,SEMIMAJOR_AXIS,PERIOD,APOGEE,PERIGEE,DECAYED
40536,KOMPSAT 3A,PAYLOAD,2020-12-05 11:22:13,15.12189328,5.8399999999999997e-05,97.5597,278.0485,19.705,116.7595,5.3276e-05,8.55e-06,0.0,0 KOMPSAT 3A,1 40536U 15014A   20340.47376997  .00000855  00000-0  53276-4 0  9995,2 40536  97.5597 278.0485 0000584  19.7050 116.7595 15.12189328314568,6907.6619999999975,95.226,529.93,529.123,0.0
40536,KOMPSAT 3A,PAYLOAD,2020-12-05 19:04:40,15.121901800000002,5.6399999999999995e-05,97.5597,278.3664,20.3086,63.3418,5.4798e-05,8.81e-06,0.0,0 KOMPSAT 3A,1 40536U 15014A   20340.79491737  .00000881  00000-0  54798-4 0  9999,2 40536  97.5597 278.3664 0000564  20.3086  63.3418 15.12190180314610,6907.659000000002,95.226,529.914,529.135,0.0
40536,KOMPSAT 3A,PAYLOAD,2020-12-06 03:09:28,15.12190936,5.570000000000001e-05,97.5598,278.6997,19.4485,95.7743,5.502e-05,8.85e-06,0.0,0 KOMPSAT 3A,1 40536U 15014A   20341.13157567  .00000885  00000-0  55020-4 0  9991,2 40536  97.5598 278.6997 0000557  19.4485  95.7743 15.12190936314661,6907.656999999997,95.226,529.9069999999998,529.137,0.0
40536,KOMPSAT 3A,PAYLOAD,2020-12-06 11:11:37,15.12191802,5.03e-05,97.5599,279.0313,23.0298,113.8283,5.608e-05,9.03e-06,0.0,0 KOMPSAT 3A,1 40536U 15014A   20341.46640705  .00000903  00000-0  56080-4 0  9996,2 40536  97.5599 279.0313 0000503  23.0298 113.8283 15.12191802314713,6907.654,95.226,529.867,529.172,0.0
40536,KOMPSAT 3A,PAYLOAD,2020-12-06 18:53:56,15.121933800000004,4.5e-05,97.5599,279.3491,23.8728,59.6458,6.2313e-05,1.011e-05,0.0,0 KOMPSAT 3A,1 40536U 15014A   20341.78745650  .00001011  00000-0  62313-4 0  9993,2 40536  97.5599 279.3491 0000450  23.8728  59.6458 15.12193380314769,6907.649,95.226,529.825,529.2040000000002,0.0
40536,KOMPSAT 3A,PAYLOAD,2020-12-07 03:01:26,15.12194654,3.47e-05,97.56,279.6844,32.4626,92.8715,6.5762e-05,1.07e-05,0.0,0 KOMPSAT 3A,1 40536U 15014A   20342.12599626  .00001070  00000-0  65762-4 0  9998,2 40536  97.5600 279.6844 0000347  32.4626  92.8715 15.12194654314811,6907.646,95.226,529.75,529.271,0.0
40536,KOMPSAT 3A,PAYLOAD,2020-12-07 07:56:53,15.12195246,3.37e-05,97.56,279.8875,34.6028,126.9727,6.640199999999999e-05,1.081e-05,0.0,0 KOMPSAT 3A,1 40536U 15014A   20342.33117009  .00001081  00000-0  66402-4 0  9996,2 40536  97.5600 279.8875 0000337  34.6028 126.9727 15.12195246314849,6907.644,95.226,529.741,529.276,0.0
40536,KOMPSAT 3A,PAYLOAD,2020-12-07 11:01:07,15.12195737,3.54e-05,97.56,280.0143,35.0701,102.6145,6.7836e-05,1.106e-05,0.0,0 KOMPSAT 3A,1 40536U 15014A   20342.45912027  .00001106  00000-0  67836-4 0  9992,2 40536  97.5600 280.0143 0000354  35.0701 102.6145 15.12195737314865,6907.642,95.226,529.752,529.263,0.0
40536,KOMPSAT 3A,PAYLOAD,2020-12-07 18:43:37,15.12197141,4.03e-05,97.5602,280.3323,30.5292,54.5062,7.2964e-05,1.195e-05,0.0,0 KOMPSAT 3A,1 40536U 15014A   20342.78029654  .00001195  00000-0  72964-4 0  9999,2 40536  97.5602 280.3323 0000403  30.5292  54.5062 15.12197141314910,6907.638000000001,95.226,529.781,529.225,0.0
40536,KOMPSAT 3A,PAYLOAD,2020-12-08 02:50:52,15.12198582,3.4399999999999996e-05,97.5603,280.6672,32.488,93.4384,7.6983e-05,1.264e-05,0.0,0 KOMPSAT 3A,1 40536U 15014A   20343.11866564  .00001264  00000-0  76983-4 0  9998,2 40536  97.5603 280.6672 0000344  32.4880  93.4384 15.12198582314963,6907.634,95.226,529.736,529.261,0.0
40536,KOMPSAT 3A,PAYLOAD,2020-12-08 07:43:24,15.12199267,3.4399999999999996e-05,97.5603,280.8683,34.6198,116.5459,7.7852e-05,1.279e-05,0.0,0 KOMPSAT 3A,1 40536U 15014A   20343.32181671  .00001279  00000-0  77852-4 0  9992,2 40536  97.5603 280.8683 0000344  34.6198 116.5459 15.12199267314997,6907.6309999999985,95.226,529.734,529.259,0.0
40536,KOMPSAT 3A,PAYLOAD,2020-12-08 10:49:06,15.12199603,3.43e-05,97.5603,280.9963,37.0597,95.6881,7.8069e-05,1.283e-05,0.0,0 KOMPSAT 3A,1 40536U 15014A   20343.45077274  .00001283  00000-0  78069-4 0  9995,2 40536  97.5603 280.9963 0000343  37.0597  95.6881 15.12199603315012,6907.63,95.226,529.732,529.259,0.0
40536,KOMPSAT 3A,PAYLOAD,2020-12-08 15:32:41,15.12200399,3.9e-05,97.5604,281.1913,36.3953,87.7185,8.0735e-05,1.329e-05,0.0,0 KOMPSAT 3A,1 40536U 15014A   20343.64769767  .00001329  00000-0  80735-4 0  9995,2 40536  97.5604 281.1913 0000390  36.3953  87.7185 15.12200399315048,6907.628000000002,95.225,529.762,529.224,0.0
40536,KOMPSAT 3A,PAYLOAD,2020-12-08 18:16:45,15.12200739,3.74e-05,97.5605,281.3042,38.7657,345.2308,8.1058e-05,1.334e-05,0.0,0 KOMPSAT 3A,1 40536U 15014A   20343.76163657  .00001334  00000-0  81058-4 0  9999,2 40536  97.5605 281.3042 0000374  38.7657 345.2308 15.12200739315062,6907.6269999999995,95.225,529.75,529.234,0.0
40536,KOMPSAT 3A,PAYLOAD,2020-12-09 12:13:50,15.12202715,2.49e-05,97.5604,282.045,54.8803,78.4459,8.102e-05,1.334e-05,0.0,0 KOMPSAT 3A,1 40536U 15014A   20344.50960845  .00001334  00000-0  81020-4 0  9995,2 40536  97.5604 282.0450 0000249  54.8803  78.4459 15.12202715315175,6907.621,95.225,529.658,529.314,0.0
40536,KOMPSAT 3A,PAYLOAD,2020-12-09 19:57:24,15.12203522,2.23e-05,97.5604,282.3638,65.3925,19.3773,8.087800000000001e-05,1.332e-05,0.0,0 KOMPSAT 3A,1 40536U 15014A   20344.83153612  .00001332  00000-0  80878-4 0  9995,2 40536  97.5604 282.3638 0000223  65.3925  19.3773 15.12203522315226,6907.619000000002,95.225,529.638,529.3290000000002,0.0
40536,KOMPSAT 3A,PAYLOAD,2020-12-10 04:01:31,15.12204058,2.37e-05,97.5604,282.6967,70.4255,43.3569,7.8298e-05,1.287e-05,0.0,0 KOMPSAT 3A,1 40536U 15014A   20345.16772168  .00001287  00000-0  78298-4 0  9997,2 40536  97.5604 282.6967 0000237  70.4255  43.3569 15.12204058315272,6907.6169999999975,95.225,529.646,529.318,0.0
40536,KOMPSAT 3A,PAYLOAD,2020-12-10 08:58:49,15.12204353,2.0300000000000002e-05,97.5604,282.901,77.5998,79.4188,7.6383e-05,1.254e-05,0.0,0 KOMPSAT 3A,1 40536U 15014A   20345.37418038  .00001254  00000-0  76383-4 0  9990,2 40536  97.5604 282.9010 0000203  77.5998  79.4188 15.12204353315308,6907.616,95.225,529.621,529.341,0.0
40536,KOMPSAT 3A,PAYLOAD,2020-12-10 11:57:22,15.1220429,1.66e-05,97.5604,283.0238,96.5017,15.112,7.3973e-05,1.212e-05,0.0,0 KOMPSAT 3A,1 40536U 15014A   20345.49817595 +.00001212 +00000-0 +73973-4 0  9990,2 40536 097.5604 283.0238 0000166 096.5017 015.1120 15.12204290315328,6907.616,95.225,529.596,529.367,0.0
40536,KOMPSAT 3A,PAYLOAD,2020-12-10 16:44:51,15.12204285,1.9600000000000002e-05,97.5604,283.2214,121.8727,355.8719,7.0258e-05,1.148e-05,0.0,0 KOMPSAT 3A,1 40536U 15014A   20345.69781461  .00001148  00000-0  70258-4 0  9995,2 40536  97.5604 283.2214 0000196 121.8727 355.8719 15.12204285315352,6907.616,95.225,529.617,529.346,0.0
40536,KOMPSAT 3A,PAYLOAD,2020-12-10 19:46:34,15.12204465,2.09e-05,97.5603,283.3461,121.3063,323.0262,6.916e-05,1.129e-05,0.0,0 KOMPSAT 3A,1 40536U 15014A   20345.82401422  .00001129  00000-0  69160-4 0  9995,2 40536  97.5603 283.3461 0000209 121.3063 323.0262 15.12204465315371,6907.616,95.225,529.625,529.336,0.0
40536,KOMPSAT 3A,PAYLOAD,2020-12-11 03:50:53,15.12204578,2.3899999999999998e-05,97.5605,283.6795,125.0785,349.0603,6.4088e-05,1.042e-05,0.0,0 KOMPSAT 3A,1 40536U 15014A   20346.16034563  .00001042  00000-0  64088-4 0  9999,2 40536  97.5605 283.6795 0000239 125.0785 349.0603 15.12204578315429,6907.615,95.225,529.645,529.315,0.0
40536,KOMPSAT 3A,PAYLOAD,2020-12-11 11:52:27,15.12204623,2.58e-05,97.5606,284.01099999999997,139.7387,353.7784,5.9688e-05,9.66e-06,0.0,0 KOMPSAT 3A,1 40536U 15014A   20346.49476039  .00000966  00000-0  59688-4 0  9997,2 40536  97.5606 284.0110 0000258 139.7387 353.7784 15.12204623315475,6907.615,95.225,529.658,529.302,0.0
40536,KOMPSAT 3A,PAYLOAD,2020-12-11 21:02:22,15.12204484,2.8499999999999998e-05,97.5606,284.389,143.3963,267.7701,5.2903999999999994e-05,8.49e-06,0.0,0 KOMPSAT 3A,1 40536U 15014A   20346.87664726  .00000849  00000-0  52904-4 0  9995,2 40536  97.5606 284.3890 0000285 143.3963 267.7701 15.12204484315539,6907.616,95.225,529.677,529.284,0.0
40536,KOMPSAT 3A,PAYLOAD,2020-12-12 03:40:23,15.12204396,2.54e-05,97.5605,284.6627,142.3326,332.606,4.8522e-05,7.73e-06,0.0,0 KOMPSAT 3A,1 40536U 15014A   20347.15305145  .00000773  00000-0  48522-4 0  9991,2 40536  97.5605 284.6627 0000254 142.3326 332.6060 15.12204396315573,6907.616,95.225,529.656,529.305,0.0
40536,KOMPSAT 3A,PAYLOAD,2020-12-12 13:04:45,15.12203946,2.6000000000000002e-05,97.5605,285.0505,140.0502,307.1022,4.1411999999999996e-05,6.5000000000000004e-06,0.0,0 KOMPSAT 3A,1 40536U 15014A   20347.54496816  .00000650  00000-0  41412-4 0  9995,2 40536  97.5605 285.0505 0000260 140.0502 307.1022 15.12203946315633,6907.6169999999975,95.225,529.6619999999998,529.303,0.0
40536,KOMPSAT 3A,PAYLOAD,2020-12-12 21:00:48,15.12203861,2.7899999999999997e-05,97.5603,285.3779,141.8095,303.9209,3.6771e-05,5.700000000000001e-06,0.0,0 KOMPSAT 3A,1 40536U 15014A   20347.87555954  .00000570  00000-0  36771-4 0  9993,2 40536  97.5603 285.3779 0000279 141.8095 303.9209 15.12203861315685,6907.6169999999975,95.225,529.675,529.29,0.0
40536,KOMPSAT 3A,PAYLOAD,2020-12-13 05:02:32,15.12203905,2.9600000000000005e-05,97.5604,285.7092,138.7133,327.101,3.3598e-05,5.16e-06,0.0,0 KOMPSAT 3A,1 40536U 15014A   20348.21010375  .00000516  00000-0  33598-4 0  9999,2 40536  97.5604 285.7092 0000296 138.7133 327.1010 15.12203905315738,6907.6169999999975,95.225,529.687,529.278,0.0
40536,KOMPSAT 3A,PAYLOAD,2020-12-13 11:31:28,15.12204306,4.45e-05,97.5606,285.9771,158.9337,336.3014,3.3857e-05,5.2e-06,0.0,0 KOMPSAT 3A,1 40536U 15014A   20348.48019289  .00000520  00000-0  33857-4 0  9994,2 40536  97.5606 285.9771 0000445 158.9337 336.3014 15.12204306315778,6907.616,95.225,529.789,529.174,0.0
